FLOCK 4G-23             
1 62647U 25009AQ  26195.18492066  .00026647  00000+0  79237-3 0  9995
2 62647  97.3932 276.8717 0003154 174.6220 185.5058 15.34715951 83063
FLOCK 4G-34             
1 62650U 25009AT  26195.14499819  .00005906  00000+0  20751-3 0  9990
2 62650  97.3967 276.5997 0002233 165.2618 194.8688 15.29763602 83035
FLOCK 4G-21             
1 62651U 25009AU  26195.19678457  .00023028  00000+0  72734-3 0  9996
2 62651  97.3998 277.6490 0003141 193.5530 166.5628 15.32827511 83096
FLOCK 4G-31             
1 62652U 25009AV  26195.17476800  .00006318  00000+0  22314-3 0  9995
2 62652  97.3972 276.6016 0001774 158.8203 201.3111 15.29568137 83034
FLOCK 4G-4              
1 62659U 25009BC  26195.14893833  .00021838  00000+0  70570-3 0  9999
2 62659  97.3955 276.3835 0004396 195.9216 164.1889 15.32101717140636
FLOCK 4G-6              
1 62660U 25009BD  26195.16420324  .00005722  00000+0  19988-3 0  9994
2 62660  97.3946 276.4427 0002799 204.9238 155.1867 15.29966261140620
FLOCK 4G-2              
1 62661U 25009BE  26195.15803807  .00006199  00000+0  21399-3 0  9993
2 62661  97.4013 277.0770 0003614 206.0494 154.0566 15.30315736140653
FLOCK 4G-5              
1 62663U 25009BG  26195.15334237  .00005322  00000+0  18086-3 0  9997
2 62663  97.4029 277.4712 0003407 185.6254 174.4949 15.30895041 83062
FLOCK 4G-1              
1 62666U 25009BK  26195.20822654  .00005856  00000+0  20317-3 0  9993
2 62666  97.4028 277.1061 0003901 202.6416 157.4653 15.30176804 83047
FLOCK 4G-14             
1 62667U 25009BL  26195.17362822  .00006500  00000+0  22836-3 0  9991
2 62667  97.4028 276.8689 0004090 197.6161 162.4938 15.29722781 83029
FLOCK 4G-10             
1 62670U 25009BP  26195.18461015  .00006798  00000+0  23795-3 0  9994
2 62670  97.3928 276.1786 0003581 216.7618 143.3377 15.29825842140667
FLOCK 4G-36             
1 62675U 25009BU  26195.17911926  .00006811  00000+0  23861-3 0  9999
2 62675  97.4014 276.7962 0004255 203.6199 156.4847 15.29797757 83025
FLOCK 4G-15             
1 62678U 25009BX  26195.18611226  .00006646  00000+0  23223-3 0  9991
2 62678  97.4020 276.9454 0004478 200.3749 159.7313 15.29887877140677
FLOCK 4G-30             
1 62679U 25009BY  26195.19735685  .00024904  00000+0  75996-3 0  9990
2 62679  97.3925 276.4740 0004288 199.5117 160.5962 15.33905273140688
FLOCK 4G-18             
1 62680U 25009BZ  26195.14530258  .00021669  00000+0  69888-3 0  9994
2 62680  97.4010 276.8197 0006076 214.1937 145.8914 15.32157460140664
FLOCK 4G-17             
1 62681U 25009CA  26195.14722042  .00006527  00000+0  22685-3 0  9999
2 62681  97.3925 276.3786 0004020 217.6999 142.3960 15.30071486140676
