{"fetched_at":"2026-07-14T17:40:25.184Z","source":"https://celestrak.org/NORAD/elements/gp.php?GROUP=planet&FORMAT=JSON","constellation":"superdove","records":[{"OBJECT_NAME":"FLOCK 4G-23","OBJECT_ID":"2025-009AQ","EPOCH":"2026-07-14T04:26:17.145024","CLASSIFICATION_TYPE":"U","MEAN_MOTION":15.34715951,"ECCENTRICITY":0.0003154,"INCLINATION":97.3932,"RA_OF_ASC_NODE":276.8717,"ARG_OF_PERICENTER":174.622,"MEAN_ANOMALY":185.5058,"EPHEMERIS_TYPE":0,"NORAD_CAT_ID":62647,"ELEMENT_SET_NO":999,"REV_AT_EPOCH":8306,"BSTAR":0.00079237,"MEAN_MOTION_DOT":0.00026647,"MEAN_MOTION_DDOT":0},{"OBJECT_NAME":"FLOCK 4G-34","OBJECT_ID":"2025-009AT","EPOCH":"2026-07-14T03:28:47.843616","CLASSIFICATION_TYPE":"U","MEAN_MOTION":15.29763602,"ECCENTRICITY":0.0002233,"INCLINATION":97.3967,"RA_OF_ASC_NODE":276.5997,"ARG_OF_PERICENTER":165.2618,"MEAN_ANOMALY":194.8688,"EPHEMERIS_TYPE":0,"NORAD_CAT_ID":62650,"ELEMENT_SET_NO":999,"REV_AT_EPOCH":8303,"BSTAR":0.00020751,"MEAN_MOTION_DOT":0.00005906,"MEAN_MOTION_DDOT":0},{"OBJECT_NAME":"FLOCK 4G-21","OBJECT_ID":"2025-009AU","EPOCH":"2026-07-14T04:43:22.186848","CLASSIFICATION_TYPE":"U","MEAN_MOTION":15.32827511,"ECCENTRICITY":0.0003141,"INCLINATION":97.3998,"RA_OF_ASC_NODE":277.649,"ARG_OF_PERICENTER":193.553,"MEAN_ANOMALY":166.5628,"EPHEMERIS_TYPE":0,"NORAD_CAT_ID":62651,"ELEMENT_SET_NO":999,"REV_AT_EPOCH":8309,"BSTAR":0.00072734,"MEAN_MOTION_DOT":0.00023028,"MEAN_MOTION_DDOT":0},{"OBJECT_NAME":"FLOCK 4G-31","OBJECT_ID":"2025-009AV","EPOCH":"2026-07-14T04:11:39.955200","CLASSIFICATION_TYPE":"U","MEAN_MOTION":15.29568137,"ECCENTRICITY":0.0001774,"INCLINATION":97.3972,"RA_OF_ASC_NODE":276.6016,"ARG_OF_PERICENTER":158.8203,"MEAN_ANOMALY":201.3111,"EPHEMERIS_TYPE":0,"NORAD_CAT_ID":62652,"ELEMENT_SET_NO":999,"REV_AT_EPOCH":8303,"BSTAR":0.00022314,"MEAN_MOTION_DOT":0.00006318,"MEAN_MOTION_DDOT":0},{"OBJECT_NAME":"FLOCK 4G-4","OBJECT_ID":"2025-009BC","EPOCH":"2026-07-14T03:34:28.271712","CLASSIFICATION_TYPE":"U","MEAN_MOTION":15.32101717,"ECCENTRICITY":0.0004396,"INCLINATION":97.3955,"RA_OF_ASC_NODE":276.3835,"ARG_OF_PERICENTER":195.9216,"MEAN_ANOMALY":164.1889,"EPHEMERIS_TYPE":0,"NORAD_CAT_ID":62659,"ELEMENT_SET_NO":999,"REV_AT_EPOCH":14063,"BSTAR":0.0007057,"MEAN_MOTION_DOT":0.00021838,"MEAN_MOTION_DDOT":0},{"OBJECT_NAME":"FLOCK 4G-6","OBJECT_ID":"2025-009BD","EPOCH":"2026-07-14T03:56:27.159936","CLASSIFICATION_TYPE":"U","MEAN_MOTION":15.29966261,"ECCENTRICITY":0.0002799,"INCLINATION":97.3946,"RA_OF_ASC_NODE":276.4427,"ARG_OF_PERICENTER":204.9238,"MEAN_ANOMALY":155.1867,"EPHEMERIS_TYPE":0,"NORAD_CAT_ID":62660,"ELEMENT_SET_NO":999,"REV_AT_EPOCH":14062,"BSTAR":0.00019988,"MEAN_MOTION_DOT":0.00005722,"MEAN_MOTION_DDOT":0},{"OBJECT_NAME":"FLOCK 4G-2","OBJECT_ID":"2025-009BE","EPOCH":"2026-07-14T03:47:34.489248","CLASSIFICATION_TYPE":"U","MEAN_MOTION":15.30315736,"ECCENTRICITY":0.0003614,"INCLINATION":97.4013,"RA_OF_ASC_NODE":277.077,"ARG_OF_PERICENTER":206.0494,"MEAN_ANOMALY":154.0566,"EPHEMERIS_TYPE":0,"NORAD_CAT_ID":62661,"ELEMENT_SET_NO":999,"REV_AT_EPOCH":14065,"BSTAR":0.00021399,"MEAN_MOTION_DOT":0.00006199,"MEAN_MOTION_DDOT":0},{"OBJECT_NAME":"FLOCK 4G-5","OBJECT_ID":"2025-009BG","EPOCH":"2026-07-14T03:40:48.780768","CLASSIFICATION_TYPE":"U","MEAN_MOTION":15.30895041,"ECCENTRICITY":0.0003407,"INCLINATION":97.4029,"RA_OF_ASC_NODE":277.4712,"ARG_OF_PERICENTER":185.6254,"MEAN_ANOMALY":174.4949,"EPHEMERIS_TYPE":0,"NORAD_CAT_ID":62663,"ELEMENT_SET_NO":999,"REV_AT_EPOCH":8306,"BSTAR":0.00018086,"MEAN_MOTION_DOT":0.00005322,"MEAN_MOTION_DDOT":0},{"OBJECT_NAME":"FLOCK 4G-1","OBJECT_ID":"2025-009BK","EPOCH":"2026-07-14T04:59:50.773056","CLASSIFICATION_TYPE":"U","MEAN_MOTION":15.30176804,"ECCENTRICITY":0.0003901,"INCLINATION":97.4028,"RA_OF_ASC_NODE":277.1061,"ARG_OF_PERICENTER":202.6416,"MEAN_ANOMALY":157.4653,"EPHEMERIS_TYPE":0,"NORAD_CAT_ID":62666,"ELEMENT_SET_NO":999,"REV_AT_EPOCH":8304,"BSTAR":0.00020317,"MEAN_MOTION_DOT":0.00005856,"MEAN_MOTION_DDOT":0},{"OBJECT_NAME":"FLOCK 4G-14","OBJECT_ID":"2025-009BL","EPOCH":"2026-07-14T04:10:01.478208","CLASSIFICATION_TYPE":"U","MEAN_MOTION":15.29722781,"ECCENTRICITY":0.000409,"INCLINATION":97.4028,"RA_OF_ASC_NODE":276.8689,"ARG_OF_PERICENTER":197.6161,"MEAN_ANOMALY":162.4938,"EPHEMERIS_TYPE":0,"NORAD_CAT_ID":62667,"ELEMENT_SET_NO":999,"REV_AT_EPOCH":8302,"BSTAR":0.00022836,"MEAN_MOTION_DOT":0.000065,"MEAN_MOTION_DDOT":0},{"OBJECT_NAME":"FLOCK 4G-10","OBJECT_ID":"2025-009BP","EPOCH":"2026-07-14T04:25:50.316960","CLASSIFICATION_TYPE":"U","MEAN_MOTION":15.29825842,"ECCENTRICITY":0.0003581,"INCLINATION":97.3928,"RA_OF_ASC_NODE":276.1786,"ARG_OF_PERICENTER":216.7618,"MEAN_ANOMALY":143.3377,"EPHEMERIS_TYPE":0,"NORAD_CAT_ID":62670,"ELEMENT_SET_NO":999,"REV_AT_EPOCH":14066,"BSTAR":0.00023795,"MEAN_MOTION_DOT":0.00006798,"MEAN_MOTION_DDOT":0},{"OBJECT_NAME":"FLOCK 4G-36","OBJECT_ID":"2025-009BU","EPOCH":"2026-07-14T04:17:55.904064","CLASSIFICATION_TYPE":"U","MEAN_MOTION":15.29797757,"ECCENTRICITY":0.0004255,"INCLINATION":97.4014,"RA_OF_ASC_NODE":276.7962,"ARG_OF_PERICENTER":203.6199,"MEAN_ANOMALY":156.4847,"EPHEMERIS_TYPE":0,"NORAD_CAT_ID":62675,"ELEMENT_SET_NO":999,"REV_AT_EPOCH":8302,"BSTAR":0.00023861,"MEAN_MOTION_DOT":0.00006811,"MEAN_MOTION_DDOT":0},{"OBJECT_NAME":"FLOCK 4G-15","OBJECT_ID":"2025-009BX","EPOCH":"2026-07-14T04:28:00.099264","CLASSIFICATION_TYPE":"U","MEAN_MOTION":15.29887877,"ECCENTRICITY":0.0004478,"INCLINATION":97.402,"RA_OF_ASC_NODE":276.9454,"ARG_OF_PERICENTER":200.3749,"MEAN_ANOMALY":159.7313,"EPHEMERIS_TYPE":0,"NORAD_CAT_ID":62678,"ELEMENT_SET_NO":999,"REV_AT_EPOCH":14067,"BSTAR":0.00023223,"MEAN_MOTION_DOT":0.00006646,"MEAN_MOTION_DDOT":0},{"OBJECT_NAME":"FLOCK 4G-30","OBJECT_ID":"2025-009BY","EPOCH":"2026-07-14T04:44:11.631840","CLASSIFICATION_TYPE":"U","MEAN_MOTION":15.33905273,"ECCENTRICITY":0.0004288,"INCLINATION":97.3925,"RA_OF_ASC_NODE":276.474,"ARG_OF_PERICENTER":199.5117,"MEAN_ANOMALY":160.5962,"EPHEMERIS_TYPE":0,"NORAD_CAT_ID":62679,"ELEMENT_SET_NO":999,"REV_AT_EPOCH":14068,"BSTAR":0.00075996,"MEAN_MOTION_DOT":0.00024904,"MEAN_MOTION_DDOT":0},{"OBJECT_NAME":"FLOCK 4G-18","OBJECT_ID":"2025-009BZ","EPOCH":"2026-07-14T03:29:14.142912","CLASSIFICATION_TYPE":"U","MEAN_MOTION":15.3215746,"ECCENTRICITY":0.0006076,"INCLINATION":97.401,"RA_OF_ASC_NODE":276.8197,"ARG_OF_PERICENTER":214.1937,"MEAN_ANOMALY":145.8914,"EPHEMERIS_TYPE":0,"NORAD_CAT_ID":62680,"ELEMENT_SET_NO":999,"REV_AT_EPOCH":14066,"BSTAR":0.00069888,"MEAN_MOTION_DOT":0.00021669,"MEAN_MOTION_DDOT":0},{"OBJECT_NAME":"FLOCK 4G-17","OBJECT_ID":"2025-009CA","EPOCH":"2026-07-14T03:31:59.844288","CLASSIFICATION_TYPE":"U","MEAN_MOTION":15.30071486,"ECCENTRICITY":0.000402,"INCLINATION":97.3925,"RA_OF_ASC_NODE":276.3786,"ARG_OF_PERICENTER":217.6999,"MEAN_ANOMALY":142.396,"EPHEMERIS_TYPE":0,"NORAD_CAT_ID":62681,"ELEMENT_SET_NO":999,"REV_AT_EPOCH":14067,"BSTAR":0.00022685,"MEAN_MOTION_DOT":0.00006527,"MEAN_MOTION_DDOT":0}]}
